STARLINK-5992           
1 56328U 23058M   25229.57269970 -.00000828  00000+0 -59864-4 0  9992
2 56328  97.6539 230.2637 0002959 134.9601 225.1864 15.01258228127504
STARLINK-5984           
1 56329U 23058N   25229.56900222  .00000637  00000+0  54144-4 0  9996
2 56329  97.6546 230.2695 0002881 118.4298 241.7217 15.01266632127504
STARLINK-5991           
1 56331U 23058Q   25229.56344928  .00003396  00000+0  26894-3 0  9999
2 56331  97.6543 230.2811 0003212 106.7649 253.3928 15.01246365127502
STARLINK-5093           
1 56332U 23058R   25229.57455111  .00000034  00000+0  72430-5 0  9993
2 56332  97.6536 230.2617 0002669 144.9418 215.1982 15.01258430127504
STARLINK-5553           
1 56333U 23058S   25229.56159591  .00007984  00000+0  62607-3 0  9990
2 56333  97.6540 230.2870 0002432  66.2608 293.8871 15.01225201127506
STARLINK-5548           
1 56334U 23058T   25229.56529378  .00002809  00000+0  22317-3 0  9990
2 56334  97.6549 230.2755 0002706 108.3288 251.8230 15.01263369127504
STARLINK-5559           
1 56335U 23058U   25229.42181374  .00168262  00000+0  12385-1 0  9994
2 56335  97.6540 230.1710 0004667 134.0693 226.0917 15.02497260127483
STARLINK-5562           
1 56336U 23058V   25229.56714773 -.00000276  00000+0 -16890-4 0  9995
2 56336  97.6553 230.2721 0002616 108.5087 251.6422 15.01258586127509
STARLINK-5561           
1 56337U 23058W   25229.55812984  .00000590  00000+0  50533-4 0  9997
2 56337  97.6529 230.2947 0001273  96.4182 263.7188 15.01259330127503
STARLINK-5554           
1 56338U 23058X   25229.55973552  .00000515  00000+0  44660-4 0  9998
2 56338  97.6537 230.2914 0001785  71.1349 289.0069 15.01261764127503
STARLINK-5552           
1 56339U 23058Y   25229.55232965  .00001253  00000+0  10208-3 0  9995
2 56339  97.6524 230.3075 0002224  86.2782 273.8697 15.01266406127502
STARLINK-5540           
1 56340U 23058Z   25229.55789099  .00010545  00000+0  82530-3 0  9993
2 56340  97.6535 230.2954 0001748 103.0235 257.1184 15.01216105127509
STARLINK-5543           
1 56341U 23058AA  25229.55603252  .00001376  00000+0  11176-3 0  9990
2 56341  97.6531 230.3006 0001790  85.6399 274.5030 15.01251157127507
STARLINK-5955           
1 56342U 23058AB  25229.55417991  .00001069  00000+0  87795-4 0  9994
2 56342  97.6524 230.3036 0002014  87.3506 272.7949 15.01262225127509
STARLINK-5976           
1 56343U 23058AC  25229.54677908 -.00000302  00000+0 -18944-4 0  9991
2 56343  97.6510 230.3166 0003512  73.5043 286.6567 15.01265268127506
STARLINK-5974           
1 56344U 23058AD  25229.55047861  .00000712  00000+0  60046-4 0  9995
2 56344  97.6520 230.3105 0002911  77.1504 283.0046 15.01260438127018
STARLINK-5979           
1 56345U 23058AE  25229.47827272  .00000546  00000+0  47116-4 0  9997
2 56345  97.6500 230.2537 0003956  75.3220 284.8443 15.01258363127496
