[{"OBJECT_NAME":"STARLINK-5992","OBJECT_ID":"2023-058M","EPOCH":"2025-08-17T13:44:41.254080","MEAN_MOTION":15.01258228,"ECCENTRICITY":0.0002959,"INCLINATION":97.6539,"RA_OF_ASC_NODE":230.2637,"ARG_OF_PERICENTER":134.9601,"MEAN_ANOMALY":225.1864,"EPHEMERIS_TYPE":0,"CLASSIFICATION_TYPE":"U","NORAD_CAT_ID":56328,"ELEMENT_SET_NO":999,"REV_AT_EPOCH":12750,"BSTAR":-5.9864e-5,"MEAN_MOTION_DOT":-8.28e-6,"MEAN_MOTION_DDOT":0},{"OBJECT_NAME":"STARLINK-5984","OBJECT_ID":"2023-058N","EPOCH":"2025-08-17T13:39:21.791808","MEAN_MOTION":15.01266632,"ECCENTRICITY":0.0002881,"INCLINATION":97.6546,"RA_OF_ASC_NODE":230.2695,"ARG_OF_PERICENTER":118.4298,"MEAN_ANOMALY":241.7217,"EPHEMERIS_TYPE":0,"CLASSIFICATION_TYPE":"U","NORAD_CAT_ID":56329,"ELEMENT_SET_NO":999,"REV_AT_EPOCH":12750,"BSTAR":5.4144e-5,"MEAN_MOTION_DOT":6.37e-6,"MEAN_MOTION_DDOT":0},{"OBJECT_NAME":"STARLINK-5991","OBJECT_ID":"2023-058Q","EPOCH":"2025-08-17T13:31:22.017792","MEAN_MOTION":15.01246365,"ECCENTRICITY":0.0003212,"INCLINATION":97.6543,"RA_OF_ASC_NODE":230.2811,"ARG_OF_PERICENTER":106.7649,"MEAN_ANOMALY":253.3928,"EPHEMERIS_TYPE":0,"CLASSIFICATION_TYPE":"U","NORAD_CAT_ID":56331,"ELEMENT_SET_NO":999,"REV_AT_EPOCH":12750,"BSTAR":0.00026894,"MEAN_MOTION_DOT":3.396e-5,"MEAN_MOTION_DDOT":0},{"OBJECT_NAME":"STARLINK-5093","OBJECT_ID":"2023-058R","EPOCH":"2025-08-17T13:47:21.215904","MEAN_MOTION":15.0125843,"ECCENTRICITY":0.0002669,"INCLINATION":97.6536,"RA_OF_ASC_NODE":230.2617,"ARG_OF_PERICENTER":144.9418,"MEAN_ANOMALY":215.1982,"EPHEMERIS_TYPE":0,"CLASSIFICATION_TYPE":"U","NORAD_CAT_ID":56332,"ELEMENT_SET_NO":999,"REV_AT_EPOCH":12750,"BSTAR":7.243e-6,"MEAN_MOTION_DOT":3.4e-7,"MEAN_MOTION_DDOT":0},{"OBJECT_NAME":"STARLINK-5553","OBJECT_ID":"2023-058S","EPOCH":"2025-08-17T13:28:41.886624","MEAN_MOTION":15.01225201,"ECCENTRICITY":0.0002432,"INCLINATION":97.654,"RA_OF_ASC_NODE":230.287,"ARG_OF_PERICENTER":66.2608,"MEAN_ANOMALY":293.8871,"EPHEMERIS_TYPE":0,"CLASSIFICATION_TYPE":"U","NORAD_CAT_ID":56333,"ELEMENT_SET_NO":999,"REV_AT_EPOCH":12750,"BSTAR":0.00062607,"MEAN_MOTION_DOT":7.984e-5,"MEAN_MOTION_DDOT":0},{"OBJECT_NAME":"STARLINK-5548","OBJECT_ID":"2023-058T","EPOCH":"2025-08-17T13:34:01.382592","MEAN_MOTION":15.01263369,"ECCENTRICITY":0.0002706,"INCLINATION":97.6549,"RA_OF_ASC_NODE":230.2755,"ARG_OF_PERICENTER":108.3288,"MEAN_ANOMALY":251.823,"EPHEMERIS_TYPE":0,"CLASSIFICATION_TYPE":"U","NORAD_CAT_ID":56334,"ELEMENT_SET_NO":999,"REV_AT_EPOCH":12750,"BSTAR":0.00022317,"MEAN_MOTION_DOT":2.809e-5,"MEAN_MOTION_DDOT":0},{"OBJECT_NAME":"STARLINK-5559","OBJECT_ID":"2023-058U","EPOCH":"2025-08-17T10:07:24.707136","MEAN_MOTION":15.0249726,"ECCENTRICITY":0.0004667,"INCLINATION":97.654,"RA_OF_ASC_NODE":230.171,"ARG_OF_PERICENTER":134.0693,"MEAN_ANOMALY":226.0917,"EPHEMERIS_TYPE":0,"CLASSIFICATION_TYPE":"U","NORAD_CAT_ID":56335,"ELEMENT_SET_NO":999,"REV_AT_EPOCH":12748,"BSTAR":0.012385,"MEAN_MOTION_DOT":0.00168262,"MEAN_MOTION_DDOT":0},{"OBJECT_NAME":"STARLINK-5562","OBJECT_ID":"2023-058V","EPOCH":"2025-08-17T13:36:41.563872","MEAN_MOTION":15.01258586,"ECCENTRICITY":0.0002616,"INCLINATION":97.6553,"RA_OF_ASC_NODE":230.2721,"ARG_OF_PERICENTER":108.5087,"MEAN_ANOMALY":251.6422,"EPHEMERIS_TYPE":0,"CLASSIFICATION_TYPE":"U","NORAD_CAT_ID":56336,"ELEMENT_SET_NO":999,"REV_AT_EPOCH":12750,"BSTAR":-1.689e-5,"MEAN_MOTION_DOT":-2.76e-6,"MEAN_MOTION_DDOT":0},{"OBJECT_NAME":"STARLINK-5561","OBJECT_ID":"2023-058W","EPOCH":"2025-08-17T13:23:42.418176","MEAN_MOTION":15.0125933,"ECCENTRICITY":0.0001273,"INCLINATION":97.6529,"RA_OF_ASC_NODE":230.2947,"ARG_OF_PERICENTER":96.4182,"MEAN_ANOMALY":263.7188,"EPHEMERIS_TYPE":0,"CLASSIFICATION_TYPE":"U","NORAD_CAT_ID":56337,"ELEMENT_SET_NO":999,"REV_AT_EPOCH":12750,"BSTAR":5.0533e-5,"MEAN_MOTION_DOT":5.9e-6,"MEAN_MOTION_DDOT":0},{"OBJECT_NAME":"STARLINK-5554","OBJECT_ID":"2023-058X","EPOCH":"2025-08-17T13:26:01.148928","MEAN_MOTION":15.01261764,"ECCENTRICITY":0.0001785,"INCLINATION":97.6537,"RA_OF_ASC_NODE":230.2914,"ARG_OF_PERICENTER":71.1349,"MEAN_ANOMALY":289.0069,"EPHEMERIS_TYPE":0,"CLASSIFICATION_TYPE":"U","NORAD_CAT_ID":56338,"ELEMENT_SET_NO":999,"REV_AT_EPOCH":12750,"BSTAR":4.466e-5,"MEAN_MOTION_DOT":5.15e-6,"MEAN_MOTION_DDOT":0},{"OBJECT_NAME":"STARLINK-5552","OBJECT_ID":"2023-058Y","EPOCH":"2025-08-17T13:15:21.281760","MEAN_MOTION":15.01266406,"ECCENTRICITY":0.0002224,"INCLINATION":97.6524,"RA_OF_ASC_NODE":230.3075,"ARG_OF_PERICENTER":86.2782,"MEAN_ANOMALY":273.8697,"EPHEMERIS_TYPE":0,"CLASSIFICATION_TYPE":"U","NORAD_CAT_ID":56339,"ELEMENT_SET_NO":999,"REV_AT_EPOCH":12750,"BSTAR":0.00010208,"MEAN_MOTION_DOT":1.253e-5,"MEAN_MOTION_DDOT":0},{"OBJECT_NAME":"STARLINK-5540","OBJECT_ID":"2023-058Z","EPOCH":"2025-08-17T13:23:21.781536","MEAN_MOTION":15.01216105,"ECCENTRICITY":0.0001748,"INCLINATION":97.6535,"RA_OF_ASC_NODE":230.2954,"ARG_OF_PERICENTER":103.0235,"MEAN_ANOMALY":257.1184,"EPHEMERIS_TYPE":0,"CLASSIFICATION_TYPE":"U","NORAD_CAT_ID":56340,"ELEMENT_SET_NO":999,"REV_AT_EPOCH":12750,"BSTAR":0.0008253,"MEAN_MOTION_DOT":0.00010545,"MEAN_MOTION_DDOT":0},{"OBJECT_NAME":"STARLINK-5543","OBJECT_ID":"2023-058AA","EPOCH":"2025-08-17T13:20:41.209728","MEAN_MOTION":15.01251157,"ECCENTRICITY":0.000179,"INCLINATION":97.6531,"RA_OF_ASC_NODE":230.3006,"ARG_OF_PERICENTER":85.6399,"MEAN_ANOMALY":274.503,"EPHEMERIS_TYPE":0,"CLASSIFICATION_TYPE":"U","NORAD_CAT_ID":56341,"ELEMENT_SET_NO":999,"REV_AT_EPOCH":12750,"BSTAR":0.00011176,"MEAN_MOTION_DOT":1.376e-5,"MEAN_MOTION_DDOT":0},{"OBJECT_NAME":"STARLINK-5955","OBJECT_ID":"2023-058AB","EPOCH":"2025-08-17T13:18:01.144224","MEAN_MOTION":15.01262225,"ECCENTRICITY":0.0002014,"INCLINATION":97.6524,"RA_OF_ASC_NODE":230.3036,"ARG_OF_PERICENTER":87.3506,"MEAN_ANOMALY":272.7949,"EPHEMERIS_TYPE":0,"CLASSIFICATION_TYPE":"U","NORAD_CAT_ID":56342,"ELEMENT_SET_NO":999,"REV_AT_EPOCH":12750,"BSTAR":8.7795e-5,"MEAN_MOTION_DOT":1.069e-5,"MEAN_MOTION_DDOT":0},{"OBJECT_NAME":"STARLINK-5976","OBJECT_ID":"2023-058AC","EPOCH":"2025-08-17T13:07:21.712512","MEAN_MOTION":15.01265268,"ECCENTRICITY":0.0003512,"INCLINATION":97.651,"RA_OF_ASC_NODE":230.3166,"ARG_OF_PERICENTER":73.5043,"MEAN_ANOMALY":286.6567,"EPHEMERIS_TYPE":0,"CLASSIFICATION_TYPE":"U","NORAD_CAT_ID":56343,"ELEMENT_SET_NO":999,"REV_AT_EPOCH":12750,"BSTAR":-1.8944e-5,"MEAN_MOTION_DOT":-3.02e-6,"MEAN_MOTION_DDOT":0},{"OBJECT_NAME":"STARLINK-5974","OBJECT_ID":"2023-058AD","EPOCH":"2025-08-17T13:12:41.351904","MEAN_MOTION":15.01260438,"ECCENTRICITY":0.0002911,"INCLINATION":97.652,"RA_OF_ASC_NODE":230.3105,"ARG_OF_PERICENTER":77.1504,"MEAN_ANOMALY":283.0046,"EPHEMERIS_TYPE":0,"CLASSIFICATION_TYPE":"U","NORAD_CAT_ID":56344,"ELEMENT_SET_NO":999,"REV_AT_EPOCH":12701,"BSTAR":6.0046e-5,"MEAN_MOTION_DOT":7.12e-6,"MEAN_MOTION_DDOT":0},{"OBJECT_NAME":"STARLINK-5979","OBJECT_ID":"2023-058AE","EPOCH":"2025-08-17T11:28:42.763008","MEAN_MOTION":15.01258363,"ECCENTRICITY":0.0003956,"INCLINATION":97.65,"RA_OF_ASC_NODE":230.2537,"ARG_OF_PERICENTER":75.322,"MEAN_ANOMALY":284.8443,"EPHEMERIS_TYPE":0,"CLASSIFICATION_TYPE":"U","NORAD_CAT_ID":56345,"ELEMENT_SET_NO":999,"REV_AT_EPOCH":12749,"BSTAR":4.7116e-5,"MEAN_MOTION_DOT":5.46e-6,"MEAN_MOTION_DDOT":0}]
